{"type": "FeatureCollection", "features": [ {"type": "Feature", "properties": {"norad_id": 49810, "name": "GSAT0224 (GALILEO 28)", "group": "gnss", "lat": -46.52066148184966, "lon": -150.43311907692393, "alt_km": 23215.832532648597, "timestamp": "2025-12-10T21:43:22.332214+00:00", "meta": {"OBJECT_NAME": "GSAT0224 (GALILEO 28)", "OBJECT_ID": "2021-116B", "EPOCH": "2025-12-07T13:56:35.698272", "MEAN_MOTION": 1.7047563, "ECCENTRICITY": 0.00040182, "INCLINATION": 57.2213, "RA_OF_ASC_NODE": 346.8506, "ARG_OF_PERICENTER": 254.5241, "MEAN_ANOMALY": 105.0474, "EPHEMERIS_TYPE": 0, "CLASSIFICATION_TYPE": "U", "NORAD_CAT_ID": 49810, "ELEMENT_SET_NO": 999, "REV_AT_EPOCH": 2493, "BSTAR": 0, "MEAN_MOTION_DOT": -8.4e-07, "MEAN_MOTION_DDOT": 0}, "tle": {"line1": "1 49810U 21116B   25341.58096873 -.00000084  00000+0  00000+0 0  9995", "line2": "2 49810  57.2213 346.8506 0004018 254.5241 105.0474  1.70475630 24934"}}, "geometry": {"type": "Point", "coordinates": [-150.43311907692393, -46.52066148184966]}}, {"type": "Feature", "properties": {"norad_id": 52984, "name": "COSMOS 2557 (706K)", "group": "gnss", "lat": -20.819364309331853, "lon": -49.39051974191722, "alt_km": 19115.419773637554, "timestamp": "2025-12-10T21:43:22.332225+00:00", "meta": {"OBJECT_NAME": "COSMOS 2557 (706K)", "OBJECT_ID": "2022-075A", "EPOCH": "2025-12-07T04:21:00.419904", "MEAN_MOTION": 2.13101754, "ECCENTRICITY": 0.00137049, "INCLINATION": 64.4129, "RA_OF_ASC_NODE": 321.247, "ARG_OF_PERICENTER": 276.9, "MEAN_ANOMALY": 82.939, "EPHEMERIS_TYPE": 0, "CLASSIFICATION_TYPE": "U", "NORAD_CAT_ID": 52984, "ELEMENT_SET_NO": 999, "REV_AT_EPOCH": 2662, "BSTAR": 0, "MEAN_MOTION_DOT": -5.2e-07, "MEAN_MOTION_DDOT": 0}, "tle": {"line1": "1 52984U 22075A   25341.18125486 -.00000052  00000+0  00000+0 0  9990", "line2": "2 52984  64.4129 321.2470 0013704 276.9000  82.9390  2.13101754 26625"}}, "geometry": {"type": "Point", "coordinates": [-49.39051974191722, -20.819364309331853]}}, {"type": "Feature", "properties": {"norad_id": 54031, "name": "COSMOS 2559 (707K)", "group": "gnss", "lat": 54.52648758075424, "lon": 98.8868111282366, "alt_km": 19117.05446530973, "timestamp": "2025-12-10T21:43:22.332238+00:00", "meta": {"OBJECT_NAME": "COSMOS 2559 (707K)", "OBJECT_ID": "2022-130A", "EPOCH": "2025-12-10T06:50:46.265280", "MEAN_MOTION": 2.13101297, "ECCENTRICITY": 0.00118632, "INCLINATION": 64.3837, "RA_OF_ASC_NODE": 321.2275, "ARG_OF_PERICENTER": 192.5527, "MEAN_ANOMALY": 167.4169, "EPHEMERIS_TYPE": 0, "CLASSIFICATION_TYPE": "U", "NORAD_CAT_ID": 54031, "ELEMENT_SET_NO": 999, "REV_AT_EPOCH": 2466, "BSTAR": 0, "MEAN_MOTION_DOT": -5.3e-07, "MEAN_MOTION_DDOT": 0}, "tle": {"line1": "1 54031U 22130A   25344.28525770 -.00000053  00000+0  00000+0 0  9992", "line2": "2 54031  64.3837 321.2275 0011863 192.5527 167.4169  2.13101297 24666"}}, "geometry": {"type": "Point", "coordinates": [98.8868111282366, 54.52648758075424]}}, {"type": "Feature", "properties": {"norad_id": 54377, "name": "COSMOS 2564 (761)", "group": "gnss", "lat": -47.87362939212719, "lon": 50.43582681702762, "alt_km": 19116.44136435187, "timestamp": "2025-12-10T21:43:22.332251+00:00", "meta": {"OBJECT_NAME": "COSMOS 2564 (761)", "OBJECT_ID": "2022-161A", "EPOCH": "2025-12-10T14:22:10.689312", "MEAN_MOTION": 2.1310202, "ECCENTRICITY": 0.0008624, "INCLINATION": 64.738, "RA_OF_ASC_NODE": 198.9701, "ARG_OF_PERICENTER": 205.0388, "MEAN_ANOMALY": 154.9896, "EPHEMERIS_TYPE": 0, "CLASSIFICATION_TYPE": "U", "NORAD_CAT_ID": 54377, "ELEMENT_SET_NO": 999, "REV_AT_EPOCH": 2361, "BSTAR": 0, "MEAN_MOTION_DOT": 4.7e-07, "MEAN_MOTION_DDOT": 0}, "tle": {"line1": "1 54377U 22161A   25344.59873483  .00000047  00000+0  00000+0 0  9992", "line2": "2 54377  64.7380 198.9701 0008624 205.0388 154.9896  2.13102020 23612"}}, "geometry": {"type": "Point", "coordinates": [50.43582681702762, -47.87362939212719]}}, {"type": "Feature", "properties": {"norad_id": 55268, "name": "GPS BIII-6  (PRN 28)", "group": "gnss", "lat": -46.09407066604223, "lon": 109.41884221559982, "alt_km": 20183.120067417618, "timestamp": "2025-12-10T21:43:22.332262+00:00", "meta": {"OBJECT_NAME": "GPS BIII-6  (PRN 28)", "OBJECT_ID": "2023-009A", "EPOCH": "2025-12-10T05:50:57.225696", "MEAN_MOTION": 2.00555847, "ECCENTRICITY": 0.00036975, "INCLINATION": 55.1051, "RA_OF_ASC_NODE": 155.9432, "ARG_OF_PERICENTER": 357.7706, "MEAN_ANOMALY": 183.2285, "EPHEMERIS_TYPE": 0, "CLASSIFICATION_TYPE": "U", "NORAD_CAT_ID": 55268, "ELEMENT_SET_NO": 999, "REV_AT_EPOCH": 2145, "BSTAR": 0, "MEAN_MOTION_DOT": 7.5e-07, "MEAN_MOTION_DDOT": 0}, "tle": {"line1": "1 55268U 23009A   25344.24371789  .00000075  00000+0  00000+0 0  9999", "line2": "2 55268  55.1051 155.9432 0003697 357.7706 183.2285  2.00555847 21451"}}, "geometry": {"type": "Point", "coordinates": [109.41884221559982, -46.09407066604223]}}, {"type": "Feature", "properties": {"norad_id": 56564, "name": "BEIDOU-3 G4 (C62)", "group": "gnss", "lat": -0.8277353600189438, "lon": -154.20644885376961, "alt_km": 35775.49483523563, "timestamp": "2025-12-10T21:43:22.332274+00:00", "meta": {"OBJECT_NAME": "BEIDOU-3 G4 (C62)", "OBJECT_ID": "2023-066A", "EPOCH": "2025-12-10T15:09:43.865280", "MEAN_MOTION": 1.00271386, "ECCENTRICITY": 0.00029589, "INCLINATION": 0.8192, "RA_OF_ASC_NODE": 301.8923, "ARG_OF_PERICENTER": 234.3335, "MEAN_ANOMALY": 290.8777, "EPHEMERIS_TYPE": 0, "CLASSIFICATION_TYPE": "U", "NORAD_CAT_ID": 56564, "ELEMENT_SET_NO": 999, "REV_AT_EPOCH": 950, "BSTAR": 0, "MEAN_MOTION_DOT": -1.07e-06, "MEAN_MOTION_DDOT": 0}, "tle": {"line1": "1 56564U 23066A   25344.63175770 -.00000107  00000+0  00000+0 0  9994", "line2": "2 56564   0.8192 301.8923 0002958 234.3335 290.8777  1.00271386  9503"}}, "geometry": {"type": "Point", "coordinates": [-154.20644885376961, -0.8277353600189438]}}, {"type": "Feature", "properties": {"norad_id": 56759, "name": "NVS-01 (IRNSS-1J)", "group": "gnss", "lat": -2.558516910716031, "lon": 175.01915498146465, "alt_km": 35785.63084623636, "timestamp": "2025-12-10T21:43:22.332285+00:00", "meta": {"OBJECT_NAME": "NVS-01 (IRNSS-1J)", "OBJECT_ID": "2023-076A", "EPOCH": "2025-12-10T14:40:38.875584", "MEAN_MOTION": 1.0026438, "ECCENTRICITY": 0.00085999, "INCLINATION": 2.623, "RA_OF_ASC_NODE": 251.6753, "ARG_OF_PERICENTER": 8.8085, "MEAN_ANOMALY": 168.6656, "EPHEMERIS_TYPE": 0, "CLASSIFICATION_TYPE": "U", "NORAD_CAT_ID": 56759, "ELEMENT_SET_NO": 999, "REV_AT_EPOCH": 922, "BSTAR": 0, "MEAN_MOTION_DOT": -3.32e-06, "MEAN_MOTION_DDOT": 0}, "tle": {"line1": "1 56759U 23076A   25344.61156106 -.00000332  00000+0  00000+0 0  9991", "line2": "2 56759   2.6230 251.6753 0008599   8.8085 168.6656  1.00264380  9221"}}, "geometry": {"type": "Point", "coordinates": [175.01915498146465, -2.558516910716031]}}, {"type": "Feature", "properties": {"norad_id": 57517, "name": "COSMOS 2569 (703K)", "group": "gnss", "lat": -39.60761894525264, "lon": -78.55158934999015, "alt_km": 19122.438835975987, "timestamp": "2025-12-10T21:43:22.332297+00:00", "meta": {"OBJECT_NAME": "COSMOS 2569 (703K)", "OBJECT_ID": "2023-114A", "EPOCH": "2025-12-09T04:54:16.689312", "MEAN_MOTION": 2.13103889, "ECCENTRICITY": 0.0010394, "INCLINATION": 65.1923, "RA_OF_ASC_NODE": 79.033, "ARG_OF_PERICENTER": 287.0321, "MEAN_ANOMALY": 72.8717, "EPHEMERIS_TYPE": 0, "CLASSIFICATION_TYPE": "U", "NORAD_CAT_ID": 57517, "ELEMENT_SET_NO": 999, "REV_AT_EPOCH": 1821, "BSTAR": 0, "MEAN_MOTION_DOT": -1.4e-07, "MEAN_MOTION_DDOT": 0}, "tle": {"line1": "1 57517U 23114A   25343.20435983 -.00000014  00000+0  00000+0 0  9991", "line2": "2 57517  65.1923  79.0330 0010394 287.0321  72.8717  2.13103889 18214"}}, "geometry": {"type": "Point", "coordinates": [-78.55158934999015, -39.60761894525264]}}, {"type": "Feature", "properties": {"norad_id": 58654, "name": "BEIDOU-3 M28 (C50)", "group": "gnss", "lat": 40.72905290394761, "lon": 104.794990244797, "alt_km": 21528.48041763073, "timestamp": "2025-12-10T21:43:22.332310+00:00", "meta": {"OBJECT_NAME": "BEIDOU-3 M28 (C50)", "OBJECT_ID": "2023-207A", "EPOCH": "2025-12-10T06:57:54.812736", "MEAN_MOTION": 1.86229669, "ECCENTRICITY": 0.00023361, "INCLINATION": 55.5824, "RA_OF_ASC_NODE": 68.6843, "ARG_OF_PERICENTER": 269.0776, "MEAN_ANOMALY": 90.9179, "EPHEMERIS_TYPE": 0, "CLASSIFICATION_TYPE": "U", "NORAD_CAT_ID": 58654, "ELEMENT_SET_NO": 999, "REV_AT_EPOCH": 1332, "BSTAR": 0, "MEAN_MOTION_DOT": -5.6e-07, "MEAN_MOTION_DDOT": 0}, "tle": {"line1": "1 58654U 23207A   25344.29021774 -.00000056  00000+0  00000+0 0  9992", "line2": "2 58654  55.5824  68.6843 0002336 269.0776  90.9179  1.86229669 13328"}}, "geometry": {"type": "Point", "coordinates": [104.794990244797, 40.72905290394761]}}, {"type": "Feature", "properties": {"norad_id": 58655, "name": "BEIDOU-3 M26 (C48)", "group": "gnss", "lat": -6.503438200849663, "lon": -106.86573695375714, "alt_km": 21525.06790458308, "timestamp": "2025-12-10T21:43:22.332321+00:00", "meta": {"OBJECT_NAME": "BEIDOU-3 M26 (C48)", "OBJECT_ID": "2023-207B", "EPOCH": "2025-12-09T13:13:20.106624", "MEAN_MOTION": 1.86231165, "ECCENTRICITY": 0.00037, "INCLINATION": 55.5839, "RA_OF_ASC_NODE": 68.6957, "ARG_OF_PERICENTER": 254.5617, "MEAN_ANOMALY": 105.42, "EPHEMERIS_TYPE": 0, "CLASSIFICATION_TYPE": "U", "NORAD_CAT_ID": 58655, "ELEMENT_SET_NO": 999, "REV_AT_EPOCH": 1329, "BSTAR": 0, "MEAN_MOTION_DOT": -5.1e-07, "MEAN_MOTION_DDOT": 0}, "tle": {"line1": "1 58655U 23207B   25343.55092716 -.00000051  00000+0  00000+0 0  9990", "line2": "2 58655  55.5839  68.6957 0003700 254.5617 105.4200  1.86231165 13297"}}, "geometry": {"type": "Point", "coordinates": [-106.86573695375714, -6.503438200849663]}}]}